{
  "type": "FeatureCollection",
  "features": [
    {
      "type": "Feature",
      "properties": {
        "norad_id": 66794,
        "name": "STARLINK-36062",
        "group": "last-30-days",
        "lat": -33.25374513884038,
        "lon": 80.73374684388462,
        "alt_km": 360.0621218309743,
        "timestamp": "2025-12-18T15:47:09.960034+00:00",
        "meta_object_name": "STARLINK-36062",
        "meta_object_id": "2025-278D",
        "meta_epoch": "2025-12-18T06:00:02.999808",
        "meta_mean_motion": 15.72018056,
        "meta_eccentricity": 0.00014745,
        "meta_inclination": 42.9994,
        "meta_ra_of_asc_node": 218.4688,
        "meta_arg_of_pericenter": 276.8674,
        "meta_mean_anomaly": 167.7177,
        "meta_ephemeris_type": 0,
        "meta_classification_type": "U",
        "meta_norad_cat_id": 66794,
        "meta_element_set_no": 999,
        "meta_rev_at_epoch": 384,
        "meta_bstar": -0.016335199,
        "meta_mean_motion_dot": -0.01950552,
        "meta_mean_motion_ddot": 0,
        "tle_line1": "1 66794U 25278D   25352.25003472 -.01950552  00000+0 -16335-1 0  9993",
        "tle_line2": "2 66794  42.9994 218.4688 0001474 276.8674 167.7177 15.72018056  3840"
      },
      "geometry": {
        "type": "Point",
        "coordinates": [
          80.73374684388462,
          -33.25374513884038
        ]
      }
    },
    {
      "type": "Feature",
      "properties": {
        "norad_id": 66795,
        "name": "STARLINK-36047",
        "group": "last-30-days",
        "lat": -35.040239622075894,
        "lon": 84.81463017006912,
        "alt_km": 359.96778787170206,
        "timestamp": "2025-12-18T15:47:09.960047+00:00",
        "meta_object_name": "STARLINK-36047",
        "meta_object_id": "2025-278E",
        "meta_epoch": "2025-12-18T06:00:02.999808",
        "meta_mean_motion": 15.72020402,
        "meta_eccentricity": 0.00016904,
        "meta_inclination": 42.999,
        "meta_ra_of_asc_node": 218.4604,
        "meta_arg_of_pericenter": 275.7832,
        "meta_mean_anomaly": 172.6312,
        "meta_ephemeris_type": 0,
        "meta_classification_type": "U",
        "meta_norad_cat_id": 66795,
        "meta_element_set_no": 999,
        "meta_rev_at_epoch": 374,
        "meta_bstar": -0.016347985,
        "meta_mean_motion_dot": -0.01952252,
        "meta_mean_motion_ddot": 0,
        "tle_line1": "1 66795U 25278E   25352.25003472 -.01952252  00000+0 -16348-1 0  9997",
        "tle_line2": "2 66795  42.9990 218.4604 0001690 275.7832 172.6312 15.72020402  3742"
      },
      "geometry": {
        "type": "Point",
        "coordinates": [
          84.81463017006912,
          -35.040239622075894
        ]
      }
    },
    {
      "type": "Feature",
      "properties": {
        "norad_id": 66796,
        "name": "STARLINK-35964",
        "group": "last-30-days",
        "lat": 22.900397977571036,
        "lon": -118.34852399719881,
        "alt_km": 325.0948926976116,
        "timestamp": "2025-12-18T15:47:09.960061+00:00",
        "meta_object_name": "STARLINK-35964",
        "meta_object_id": "2025-278F",
        "meta_epoch": "2025-12-18T06:00:02.999808",
        "meta_mean_motion": 15.80906423,
        "meta_eccentricity": 0.00019291,
        "meta_inclination": 42.9928,
        "meta_ra_of_asc_node": 217.1827,
        "meta_arg_of_pericenter": 269.9486,
        "meta_mean_anomaly": 321.6613,
        "meta_ephemeris_type": 0,
        "meta_classification_type": "U",
        "meta_norad_cat_id": 66796,
        "meta_element_set_no": 999,
        "meta_rev_at_epoch": 368,
        "meta_bstar": -0.0003568901,
        "meta_mean_motion_dot": -0.00071308,
        "meta_mean_motion_ddot": 0,
        "tle_line1": "1 66796U 25278F   25352.25003472 -.00071308  00000+0 -35689-3 0  9992",
        "tle_line2": "2 66796  42.9928 217.1827 0001929 269.9486 321.6613 15.80906423  3680"
      },
      "geometry": {
        "type": "Point",
        "coordinates": [
          -118.34852399719881,
          22.900397977571036
        ]
      }
    },
    {
      "type": "Feature",
      "properties": {
        "norad_id": 66797,
        "name": "STARLINK-36099",
        "group": "last-30-days",
        "lat": -36.68548715766098,
        "lon": 89.07348840840845,
        "alt_km": 360.0441070032575,
        "timestamp": "2025-12-18T15:47:09.960073+00:00",
        "meta_object_name": "STARLINK-36099",
        "meta_object_id": "2025-278G",
        "meta_epoch": "2025-12-18T06:00:02.999808",
        "meta_mean_motion": 15.72024715,
        "meta_eccentricity": 0.00016613,
        "meta_inclination": 42.9991,
        "meta_ra_of_asc_node": 218.4507,
        "meta_arg_of_pericenter": 277.7944,
        "meta_mean_anomaly": 174.4521,
        "meta_ephemeris_type": 0,
        "meta_classification_type": "U",
        "meta_norad_cat_id": 66797,
        "meta_element_set_no": 999,
        "meta_rev_at_epoch": 390,
        "meta_bstar": -0.016394749,
        "meta_mean_motion_dot": -0.01957486,
        "meta_mean_motion_ddot": 0,
        "tle_line1": "1 66797U 25278G   25352.25003472 -.01957486  00000+0 -16395-1 0  9995",
        "tle_line2": "2 66797  42.9991 218.4507 0001661 277.7944 174.4521 15.72024715  3902"
      },
      "geometry": {
        "type": "Point",
        "coordinates": [
          89.07348840840845,
          -36.68548715766098
        ]
      }
    },
    {
      "type": "Feature",
      "properties": {
        "norad_id": 66798,
        "name": "STARLINK-36041",
        "group": "last-30-days",
        "lat": -37.451182372917266,
        "lon": 91.27339321139901,
        "alt_km": 360.0638518577334,
        "timestamp": "2025-12-18T15:47:09.960084+00:00",
        "meta_object_name": "STARLINK-36041",
        "meta_object_id": "2025-278H",
        "meta_epoch": "2025-12-18T06:00:02.999808",
        "meta_mean_motion": 15.72021331,
        "meta_eccentricity": 0.00014844,
        "meta_inclination": 42.9992,
        "meta_ra_of_asc_node": 218.445,
        "meta_arg_of_pericenter": 271.9592,
        "meta_mean_anomaly": 182.2072,
        "meta_ephemeris_type": 0,
        "meta_classification_type": "U",
        "meta_norad_cat_id": 66798,
        "meta_element_set_no": 999,
        "meta_rev_at_epoch": 368,
        "meta_bstar": -0.016361437,
        "meta_mean_motion_dot": -0.01953574,
        "meta_mean_motion_ddot": 0,
        "tle_line1": "1 66798U 25278H   25352.25003472 -.01953574  00000+0 -16361-1 0  9993",
        "tle_line2": "2 66798  42.9992 218.4450 0001484 271.9592 182.2072 15.72021331  3683"
      },
      "geometry": {
        "type": "Point",
        "coordinates": [
          91.27339321139901,
          -37.451182372917266
        ]
      }
    },
    {
      "type": "Feature",
      "properties": {
        "norad_id": 66799,
        "name": "STARLINK-36044",
        "group": "last-30-days",
        "lat": -38.171657114352605,
        "lon": 93.50883757227119,
        "alt_km": 360.0414898280269,
        "timestamp": "2025-12-18T15:47:09.960094+00:00",
        "meta_object_name": "STARLINK-36044",
        "meta_object_id": "2025-278J",
        "meta_epoch": "2025-12-18T06:00:02.999808",
        "meta_mean_motion": 15.7202135,
        "meta_eccentricity": 0.00016668,
        "meta_inclination": 42.9992,
        "meta_ra_of_asc_node": 218.4412,
        "meta_arg_of_pericenter": 277.1797,
        "meta_mean_anomaly": 178.9011,
        "meta_ephemeris_type": 0,
        "meta_classification_type": "U",
        "meta_norad_cat_id": 66799,
        "meta_element_set_no": 999,
        "meta_rev_at_epoch": 384,
        "meta_bstar": -0.016346665,
        "meta_mean_motion_dot": -0.01952163,
        "meta_mean_motion_ddot": 0,
        "tle_line1": "1 66799U 25278J   25352.25003472 -.01952163  00000+0 -16347-1 0  9991",
        "tle_line2": "2 66799  42.9992 218.4412 0001666 277.1797 178.9011 15.72021350  3843"
      },
      "geometry": {
        "type": "Point",
        "coordinates": [
          93.50883757227119,
          -38.171657114352605
        ]
      }
    },
    {
      "type": "Feature",
      "properties": {
        "norad_id": 66800,
        "name": "STARLINK-35996",
        "group": "last-30-days",
        "lat": -39.48377021086203,
        "lon": 98.12023991945573,
        "alt_km": 360.0499039499655,
        "timestamp": "2025-12-18T15:47:09.960105+00:00",
        "meta_object_name": "STARLINK-35996",
        "meta_object_id": "2025-278K",
        "meta_epoch": "2025-12-18T06:00:02.999808",
        "meta_mean_motion": 15.72023701,
        "meta_eccentricity": 0.00016412,
        "meta_inclination": 42.9988,
        "meta_ra_of_asc_node": 218.4315,
        "meta_arg_of_pericenter": 275.8935,
        "meta_mean_anomaly": 184.0212,
        "meta_ephemeris_type": 0,
        "meta_classification_type": "U",
        "meta_norad_cat_id": 66800,
        "meta_element_set_no": 999,
        "meta_rev_at_epoch": 363,
        "meta_bstar": -0.016381275,
        "meta_mean_motion_dot": -0.01955973,
        "meta_mean_motion_ddot": 0,
        "tle_line1": "1 66800U 25278K   25352.25003472 -.01955973  00000+0 -16381-1 0  9994",
        "tle_line2": "2 66800  42.9988 218.4315 0001641 275.8935 184.0212 15.72023701  3635"
      },
      "geometry": {
        "type": "Point",
        "coordinates": [
          98.12023991945573,
          -39.48377021086203
        ]
      }
    }
  ]
}